LEMUR-2-VALHALLA        
1 58900U 24022B   26195.10417475  .00009642  00000+0  23972-3 0  9990
2 58900  97.4076  45.4314 0009320  27.7934 332.3808 15.40467829136412
LEMUR-2-CAEL            
1 58903U 24022E   26195.15564468  .00010797  00000+0  25650-3 0  9991
2 58903  97.4060  46.4679 0007227  13.4398 346.7040 15.41834008136496
LEMUR-2-JOHNNYTRUONG    
1 59146U 24043BA  26195.00111545  .00026859  00000+0  30288-3 0  9991
2 59146  97.5386 348.4086 0004179  97.5407 262.6325 15.62495749132229
LEMUR-2-TOMATOKECHUP    
1 60471U 24149D   26195.20279132  .00006215  00000+0  17641-3 0  9992
2 60471  97.3801 277.3271 0003239 124.9206 235.2343 15.36570045106317
LEMUR-2-STELLA          
1 60533U 24149BT  26195.14745382  .00005811  00000+0  33887-3 0  9990
2 60533  97.6740 277.7295 0001257 113.1716 246.9647 15.12359088104573
LEMUR-2-MARHISYAM       
1 60536U 24149BW  26195.20414380  .00005322  00000+0  31582-3 0  9998
2 60536  97.6885 278.2620 0002605  70.7561 289.3950 15.11766292104563
LEMUR-2-AHMED-ASRAR     
1 60576U 24149DN  26195.14552916  .00006031  00000+0  34260-3 0  9997
2 60576  97.7007 280.4023 0001047 204.5268 155.5913 15.13293141104648
LEMUR-2-LLOYD           
1 60577U 24149DP  26195.15445749  .00005599  00000+0  35098-3 0  9992
2 60577  97.6751 276.3054 0004817  75.6169 284.5595 15.09740347104466
LEMUR-2-SQUIRRELCOMM    
1 60578U 24149DQ  26195.14147963  .00002843  00000+0  19180-3 0  9992
2 60578  97.6715 275.9719 0004154 333.5710  26.5305 15.07441614104468
LEMUR-2-SIERRINI        
1 60579U 24149DR  26195.16665968  .00006509  00000+0  38806-3 0  9994
2 60579  97.6848 277.8867 0006443  93.4482 266.7484 15.11500320104531
LEMUR-2-WILSON          
1 62694U 25009CP  26195.19806171  .00000704  00000+0  69100-4 0  9999
2 62694  97.7021 273.1893 0002088 330.2954  29.8148 14.95275058 81391
LEMUR-2-STAR-FOX        
1 62696U 25009CR  26195.19470198  .00003538  00000+0  26864-3 0  9994
2 62696  97.6913 276.6097 0002314  46.8798 313.2620 15.02833967 81612
LEMUR-2-ARIANNA         
1 62699U 25009CU  26195.19316993  .00003687  00000+0  27978-3 0  9991
2 62699  97.6852 276.3611 0002645  53.7789 306.3680 15.02835117 81618
LEMUR-2-ALISIA          
1 62706U 25009DB  26195.16575792  .00004562  00000+0  34200-3 0  9990
2 62706  97.6972 277.1569 0004140 131.7262 228.4318 15.03166245104210
LEMUR-2-ROUNDTRIPPER    
1 62711U 25009DG  26195.17167067  .00005099  00000+0  37125-3 0  9994
2 62711  97.7254 277.8172 0004423  65.7760 294.3928 15.04222333 81686
LEMUR-2-MYNAMEISJEFF    
1 62712U 25009DH  26195.17015149  .00004939  00000+0  35980-3 0  9997
2 62712  97.7303 278.2132 0003980  99.3120 260.8555 15.04213398 81688
