{"fetched_at":"2026-07-14T17:40:28.416Z","source":"https://celestrak.org/NORAD/elements/gp.php?GROUP=spire&FORMAT=JSON","constellation":"spire","records":[{"OBJECT_NAME":"LEMUR-2-VALHALLA","OBJECT_ID":"2024-022B","EPOCH":"2026-07-14T02:30:00.698400","CLASSIFICATION_TYPE":"U","MEAN_MOTION":15.40467829,"ECCENTRICITY":0.000932,"INCLINATION":97.4076,"RA_OF_ASC_NODE":45.4314,"ARG_OF_PERICENTER":27.7934,"MEAN_ANOMALY":332.3808,"EPHEMERIS_TYPE":0,"NORAD_CAT_ID":58900,"ELEMENT_SET_NO":999,"REV_AT_EPOCH":13641,"BSTAR":0.00023972,"MEAN_MOTION_DOT":0.00009642,"MEAN_MOTION_DDOT":0},{"OBJECT_NAME":"LEMUR-2-CAEL","OBJECT_ID":"2024-022E","EPOCH":"2026-07-14T03:44:07.700352","CLASSIFICATION_TYPE":"U","MEAN_MOTION":15.41834008,"ECCENTRICITY":0.0007227,"INCLINATION":97.406,"RA_OF_ASC_NODE":46.4679,"ARG_OF_PERICENTER":13.4398,"MEAN_ANOMALY":346.704,"EPHEMERIS_TYPE":0,"NORAD_CAT_ID":58903,"ELEMENT_SET_NO":999,"REV_AT_EPOCH":13649,"BSTAR":0.0002565,"MEAN_MOTION_DOT":0.00010797,"MEAN_MOTION_DDOT":0},{"OBJECT_NAME":"LEMUR-2-JOHNNYTRUONG","OBJECT_ID":"2024-043BA","EPOCH":"2026-07-14T00:01:36.374880","CLASSIFICATION_TYPE":"U","MEAN_MOTION":15.62495749,"ECCENTRICITY":0.0004179,"INCLINATION":97.5386,"RA_OF_ASC_NODE":348.4086,"ARG_OF_PERICENTER":97.5407,"MEAN_ANOMALY":262.6325,"EPHEMERIS_TYPE":0,"NORAD_CAT_ID":59146,"ELEMENT_SET_NO":999,"REV_AT_EPOCH":13222,"BSTAR":0.00030288,"MEAN_MOTION_DOT":0.00026859,"MEAN_MOTION_DDOT":0},{"OBJECT_NAME":"LEMUR-2-TOMATOKECHUP","OBJECT_ID":"2024-149D","EPOCH":"2026-07-14T04:52:01.170048","CLASSIFICATION_TYPE":"U","MEAN_MOTION":15.36570045,"ECCENTRICITY":0.0003239,"INCLINATION":97.3801,"RA_OF_ASC_NODE":277.3271,"ARG_OF_PERICENTER":124.9206,"MEAN_ANOMALY":235.2343,"EPHEMERIS_TYPE":0,"NORAD_CAT_ID":60471,"ELEMENT_SET_NO":999,"REV_AT_EPOCH":10631,"BSTAR":0.00017641,"MEAN_MOTION_DOT":0.00006215,"MEAN_MOTION_DDOT":0},{"OBJECT_NAME":"LEMUR-2-STELLA","OBJECT_ID":"2024-149BT","EPOCH":"2026-07-14T03:32:20.010048","CLASSIFICATION_TYPE":"U","MEAN_MOTION":15.12359088,"ECCENTRICITY":0.0001257,"INCLINATION":97.674,"RA_OF_ASC_NODE":277.7295,"ARG_OF_PERICENTER":113.1716,"MEAN_ANOMALY":246.9647,"EPHEMERIS_TYPE":0,"NORAD_CAT_ID":60533,"ELEMENT_SET_NO":999,"REV_AT_EPOCH":10457,"BSTAR":0.00033887,"MEAN_MOTION_DOT":0.00005811,"MEAN_MOTION_DDOT":0},{"OBJECT_NAME":"LEMUR-2-MARHISYAM","OBJECT_ID":"2024-149BW","EPOCH":"2026-07-14T04:53:58.024320","CLASSIFICATION_TYPE":"U","MEAN_MOTION":15.11766292,"ECCENTRICITY":0.0002605,"INCLINATION":97.6885,"RA_OF_ASC_NODE":278.262,"ARG_OF_PERICENTER":70.7561,"MEAN_ANOMALY":289.395,"EPHEMERIS_TYPE":0,"NORAD_CAT_ID":60536,"ELEMENT_SET_NO":999,"REV_AT_EPOCH":10456,"BSTAR":0.00031582,"MEAN_MOTION_DOT":0.00005322,"MEAN_MOTION_DDOT":0},{"OBJECT_NAME":"LEMUR-2-AHMED-ASRAR","OBJECT_ID":"2024-149DN","EPOCH":"2026-07-14T03:29:33.719424","CLASSIFICATION_TYPE":"U","MEAN_MOTION":15.13293141,"ECCENTRICITY":0.0001047,"INCLINATION":97.7007,"RA_OF_ASC_NODE":280.4023,"ARG_OF_PERICENTER":204.5268,"MEAN_ANOMALY":155.5913,"EPHEMERIS_TYPE":0,"NORAD_CAT_ID":60576,"ELEMENT_SET_NO":999,"REV_AT_EPOCH":10464,"BSTAR":0.0003426,"MEAN_MOTION_DOT":0.00006031,"MEAN_MOTION_DDOT":0},{"OBJECT_NAME":"LEMUR-2-LLOYD","OBJECT_ID":"2024-149DP","EPOCH":"2026-07-14T03:42:25.127136","CLASSIFICATION_TYPE":"U","MEAN_MOTION":15.09740347,"ECCENTRICITY":0.0004817,"INCLINATION":97.6751,"RA_OF_ASC_NODE":276.3054,"ARG_OF_PERICENTER":75.6169,"MEAN_ANOMALY":284.5595,"EPHEMERIS_TYPE":0,"NORAD_CAT_ID":60577,"ELEMENT_SET_NO":999,"REV_AT_EPOCH":10446,"BSTAR":0.00035098,"MEAN_MOTION_DOT":0.00005599,"MEAN_MOTION_DDOT":0},{"OBJECT_NAME":"LEMUR-2-SQUIRRELCOMM","OBJECT_ID":"2024-149DQ","EPOCH":"2026-07-14T03:23:43.840032","CLASSIFICATION_TYPE":"U","MEAN_MOTION":15.07441614,"ECCENTRICITY":0.0004154,"INCLINATION":97.6715,"RA_OF_ASC_NODE":275.9719,"ARG_OF_PERICENTER":333.571,"MEAN_ANOMALY":26.5305,"EPHEMERIS_TYPE":0,"NORAD_CAT_ID":60578,"ELEMENT_SET_NO":999,"REV_AT_EPOCH":10446,"BSTAR":0.0001918,"MEAN_MOTION_DOT":0.00002843,"MEAN_MOTION_DDOT":0},{"OBJECT_NAME":"LEMUR-2-SIERRINI","OBJECT_ID":"2024-149DR","EPOCH":"2026-07-14T03:59:59.396352","CLASSIFICATION_TYPE":"U","MEAN_MOTION":15.1150032,"ECCENTRICITY":0.0006443,"INCLINATION":97.6848,"RA_OF_ASC_NODE":277.8867,"ARG_OF_PERICENTER":93.4482,"MEAN_ANOMALY":266.7484,"EPHEMERIS_TYPE":0,"NORAD_CAT_ID":60579,"ELEMENT_SET_NO":999,"REV_AT_EPOCH":10453,"BSTAR":0.00038806,"MEAN_MOTION_DOT":0.00006509,"MEAN_MOTION_DDOT":0},{"OBJECT_NAME":"LEMUR-2-WILSON","OBJECT_ID":"2025-009CP","EPOCH":"2026-07-14T04:45:12.531744","CLASSIFICATION_TYPE":"U","MEAN_MOTION":14.95275058,"ECCENTRICITY":0.0002088,"INCLINATION":97.7021,"RA_OF_ASC_NODE":273.1893,"ARG_OF_PERICENTER":330.2954,"MEAN_ANOMALY":29.8148,"EPHEMERIS_TYPE":0,"NORAD_CAT_ID":62694,"ELEMENT_SET_NO":999,"REV_AT_EPOCH":8139,"BSTAR":0.0000691,"MEAN_MOTION_DOT":0.00000704,"MEAN_MOTION_DDOT":0},{"OBJECT_NAME":"LEMUR-2-STAR-FOX","OBJECT_ID":"2025-009CR","EPOCH":"2026-07-14T04:40:22.251072","CLASSIFICATION_TYPE":"U","MEAN_MOTION":15.02833967,"ECCENTRICITY":0.0002314,"INCLINATION":97.6913,"RA_OF_ASC_NODE":276.6097,"ARG_OF_PERICENTER":46.8798,"MEAN_ANOMALY":313.262,"EPHEMERIS_TYPE":0,"NORAD_CAT_ID":62696,"ELEMENT_SET_NO":999,"REV_AT_EPOCH":8161,"BSTAR":0.00026864,"MEAN_MOTION_DOT":0.00003538,"MEAN_MOTION_DDOT":0},{"OBJECT_NAME":"LEMUR-2-ARIANNA","OBJECT_ID":"2025-009CU","EPOCH":"2026-07-14T04:38:09.881952","CLASSIFICATION_TYPE":"U","MEAN_MOTION":15.02835117,"ECCENTRICITY":0.0002645,"INCLINATION":97.6852,"RA_OF_ASC_NODE":276.3611,"ARG_OF_PERICENTER":53.7789,"MEAN_ANOMALY":306.368,"EPHEMERIS_TYPE":0,"NORAD_CAT_ID":62699,"ELEMENT_SET_NO":999,"REV_AT_EPOCH":8161,"BSTAR":0.00027978,"MEAN_MOTION_DOT":0.00003687,"MEAN_MOTION_DDOT":0},{"OBJECT_NAME":"LEMUR-2-ALISIA","OBJECT_ID":"2025-009DB","EPOCH":"2026-07-14T03:58:41.484288","CLASSIFICATION_TYPE":"U","MEAN_MOTION":15.03166245,"ECCENTRICITY":0.000414,"INCLINATION":97.6972,"RA_OF_ASC_NODE":277.1569,"ARG_OF_PERICENTER":131.7262,"MEAN_ANOMALY":228.4318,"EPHEMERIS_TYPE":0,"NORAD_CAT_ID":62706,"ELEMENT_SET_NO":999,"REV_AT_EPOCH":10421,"BSTAR":0.000342,"MEAN_MOTION_DOT":0.00004562,"MEAN_MOTION_DDOT":0},{"OBJECT_NAME":"LEMUR-2-ROUNDTRIPPER","OBJECT_ID":"2025-009DG","EPOCH":"2026-07-14T04:07:12.345888","CLASSIFICATION_TYPE":"U","MEAN_MOTION":15.04222333,"ECCENTRICITY":0.0004423,"INCLINATION":97.7254,"RA_OF_ASC_NODE":277.8172,"ARG_OF_PERICENTER":65.776,"MEAN_ANOMALY":294.3928,"EPHEMERIS_TYPE":0,"NORAD_CAT_ID":62711,"ELEMENT_SET_NO":999,"REV_AT_EPOCH":8168,"BSTAR":0.00037125,"MEAN_MOTION_DOT":0.00005099,"MEAN_MOTION_DDOT":0},{"OBJECT_NAME":"LEMUR-2-MYNAMEISJEFF","OBJECT_ID":"2025-009DH","EPOCH":"2026-07-14T04:05:01.088736","CLASSIFICATION_TYPE":"U","MEAN_MOTION":15.04213398,"ECCENTRICITY":0.000398,"INCLINATION":97.7303,"RA_OF_ASC_NODE":278.2132,"ARG_OF_PERICENTER":99.312,"MEAN_ANOMALY":260.8555,"EPHEMERIS_TYPE":0,"NORAD_CAT_ID":62712,"ELEMENT_SET_NO":999,"REV_AT_EPOCH":8168,"BSTAR":0.0003598,"MEAN_MOTION_DOT":0.00004939,"MEAN_MOTION_DDOT":0}]}
